GPS BIIR-2  (PRN 13)    
1 24876U 97035A   21359.85647007  .00000108  00000+0  00000+0 0  9995
2 24876  55.4908 162.4459 0055904  54.6048 305.9141  2.00563016179172
GPS BIIR-4  (PRN 20)    
1 26360U 00025A   21359.95526330 -.00000024  00000+0  00000+0 0  9992
2 26360  53.9193  86.0435 0053668 178.7812 339.8982  2.00558768158497
GPS BIIR-8  (PRN 16)    
1 27663U 03005A   21359.92001750 -.00000018  00000+0  00000+0 0  9994
2 27663  55.6335 279.9516 0123983  38.8000  72.4601  2.00574783138533
GPS BIIR-9  (PRN 21)    
1 27704U 03010A   21359.57709885 -.00000061  00000+0  00000+0 0  9999
2 27704  54.9529  30.3533 0246309 300.3183 142.3647  2.00572050137329
GPS BIIR-10 (PRN 22)    
1 28129U 03058A   21359.54823800 -.00000019  00000+0  00000+0 0  9997
2 28129  53.7311  88.6879 0070095 309.1633  50.2396  2.00566038132007
GPS BIIR-11 (PRN 19)    
1 28190U 04009A   21359.82017097 -.00000048  00000+0  00000+0 0  9998
2 28190  56.1005 340.8878 0086936 114.5979  85.7136  2.00564015130169
GPS BIIR-13 (PRN 02)    
1 28474U 04045A   21359.91498903 -.00000059  00000+0  00000+0 0  9994
2 28474  55.2836  30.4141 0208323 275.9705 260.6080  2.00565147125653
GPS BIIRM-1 (PRN 17)    
1 28874U 05038A   21359.81649042 -.00000047  00000+0  00000+0 0  9999
2 28874  56.1743 338.3135 0139747 272.9343 307.0081  2.00557810119057
GPS BIIRM-2 (PRN 31)    
1 29486U 06042A   21359.54956838  .00000079  00000+0  00000+0 0  9993
2 29486  54.7373 216.1922 0103662  19.1701 284.8842  2.00564397111601
GPS BIIRM-3 (PRN 12)    
1 29601U 06052A   21359.57655679 -.00000016  00000+0  00000+0 0  9997
2 29601  55.6353 278.8967 0082858  70.0824 290.8500  2.00568485110628
GPS BIIRM-4 (PRN 15)    
1 32260U 07047A   21359.88088939  .00000087  00000+0  00000+0 0  9997
2 32260  53.2724 147.7372 0137354  60.6302 300.7170  2.00557779104037
GPS BIIRM-5 (PRN 29)    
1 32384U 07062A   21359.87238736 -.00000047  00000+0  00000+0 0  9999
2 32384  56.2878 339.0503 0015848 138.5122 347.3141  2.00552452102730
GPS BIIRM-6 (PRN 07)    
1 32711U 08012A   21359.80024571  .00000083  00000+0  00000+0 0  9991
2 32711  54.4938 215.1573 0155338 228.8834 129.8373  2.00558928100972
GPS BIIRM-8 (PRN 05)    
1 35752U 09043A   21359.94969500 -.00000013  00000+0  00000+0 0  9993
2 35752  54.9411  92.5223 0057241  57.0831  68.1260  2.00567696 90580
GPS BIIF-1  (PRN 25)    
1 36585U 10022A   21359.95052160 -.00000013  00000+0  00000+0 0  9993
2 36585  54.9138 274.5215 0100707  54.6901 188.6760  2.00556333 84819
GPS BIIF-2  (PRN 01)    
1 37753U 11036A   21359.93856168 -.00000057  00000+0  00000+0 0  9993
2 37753  56.5220  35.4661 0109935  49.7968 268.6259  2.00564273 76495
GPS BIIF-3  (PRN 24)    
1 38833U 12053A   21359.48113323  .00000085  00000+0  00000+0 0  9992
2 38833  53.5465 210.4799 0120368  44.7232 316.3102  2.00559886 66651
GPS BIIF-4  (PRN 27)    
1 39166U 13023A   21359.84080278 -.00000047  00000+0  00000+0 0  9991
2 39166  55.8089 334.7533 0097745  34.8012 325.8418  2.00566841 63103
GPS BIIF-5  (PRN 30)    
1 39533U 14008A   21359.83823797  .00000080  00000+0  00000+0 0  9999
2 39533  53.6443 215.9538 0054598 204.4658 155.3468  2.00571470 56901
GPS BIIF-6  (PRN 06)    
1 39741U 14026A   21359.61774791 -.00000058  00000+0  00000+0 0  9991
2 39741  56.4870  35.0050 0027600 299.0194  60.7648  2.00568200 55754
GPS BIIF-7  (PRN 09)    
1 40105U 14045A   21359.71086938  .00000097  00000+0  00000+0 0  9990
2 40105  54.6585 153.7418 0021462 107.5163 252.7070  2.00565915 53297
GPS BIIF-8  (PRN 03)    
1 40294U 14068A   21359.58293918 -.00000007  00000+0  00000+0 0  9999
2 40294  55.6864  94.8119 0036647  54.7061 305.6515  2.00559244 52425
GPS BIIF-9  (PRN 26)    
1 40534U 15013A   21359.21681306 -.00000009  00000+0  00000+0 0  9991
2 40534  53.8174 271.9143 0065990  17.2664 343.0096  2.00563152 49033
GPS BIIF-10 (PRN 08)    
1 40730U 15033A   21359.37864749 -.00000048  00000+0  00000+0 0  9995
2 40730  55.3121 333.6832 0070005   2.0691 357.9658  2.00561064 47201
GPS BIIF-11 (PRN 10)    
1 41019U 15062A   21359.42895885 -.00000007  00000+0  00000+0 0  9994
2 41019  55.6769  94.6573 0074941 215.3545 144.1631  2.00563064 45048
GPS BIIF-12 (PRN 32)    
1 41328U 16007A   21359.52376879  .00000097  00000+0  00000+0 0  9993
2 41328  54.8806 154.3777 0054924 225.1783 134.3633  2.00553720 43056
GPS BIII-1  (PRN 04)    
1 43873U 18109A   21359.77878810  .00000101  00000+0  00000+0 0  9990
2 43873  55.0613 156.7495 0016232 189.0716 249.6852  2.00564080 22296
GPS BIII-2  (PRN 18)    
1 44506U 19056A   21359.73495340 -.00000059  00000+0  00000+0 0  9998
2 44506  55.5922  35.9663 0020952 183.8340 125.5338  2.00568659 17282
GPS BIII-3  (PRN 23)    
1 45854U 20041A   21359.85608542 -.00000011  00000+0  00000+0 0  9992
2 45854  55.3928  93.2321 0018881 171.4115 166.2494  2.00561152 11259
GPS BIII-4  (PRN 14)    
1 46826U 20078A   21359.78589887 -.00000016  00000+0  00000+0 0  9999
2 46826  54.6854 277.1423 0012631 186.2494  71.6088  2.00566840  8721
